{"type": "FeatureCollection", "features": [{"type": "Feature", "properties": {"norad_id": 28890, "name": "BEIJING 1", "group": "dmc", "lat": 2.7670418557609775, "lon": 115.58677250336218, "alt_km": 692.3331297961586, "timestamp": "2025-12-14T11:29:49.723237+00:00", "meta": {"OBJECT_NAME": "BEIJING 1", "OBJECT_ID": "2005-043A", "EPOCH": "2025-12-13T15:47:31.339104", "MEAN_MOTION": 14.63368381, "ECCENTRICITY": 0.00153874, "INCLINATION": 98.265, "RA_OF_ASC_NODE": 115.1666, "ARG_OF_PERICENTER": 138.4663, "MEAN_ANOMALY": 221.7711, "EPHEMERIS_TYPE": 0, "CLASSIFICATION_TYPE": "U", "NORAD_CAT_ID": 28890, "ELEMENT_SET_NO": 999, "REV_AT_EPOCH": 7351, "BSTAR": 0.00015684358, "MEAN_MOTION_DOT": 7.63e-06, "MEAN_MOTION_DDOT": 0}, "tle": {"line1": "1 28890U 05043A   25347.65800161  .00000763  00000+0  15684-3 0  9999", "line2": "2 28890  98.2650 115.1666 0015387 138.4663 221.7711 14.63368381 73510"}}, "geometry": {"type": "Point", "coordinates": [115.58677250336218, 2.7670418557609775]}}, {"type": "Feature", "properties": {"norad_id": 33320, "name": "HUANJING 1A (HJ-1A)", "group": "dmc", "lat": 23.92080547956419, "lon": 160.12476523966333, "alt_km": 626.5364873864828, "timestamp": "2025-12-14T11:29:49.723261+00:00", "meta": {"OBJECT_NAME": "HUANJING 1A (HJ-1A)", "OBJECT_ID": "2008-041A", "EPOCH": "2025-12-13T15:22:18.642720", "MEAN_MOTION": 14.8339626, "ECCENTRICITY": 0.00200551, "INCLINATION": 97.6542, "RA_OF_ASC_NODE": 335.9013, "ARG_OF_PERICENTER": 31.4618, "MEAN_ANOMALY": 328.7792, "EPHEMERIS_TYPE": 0, "CLASSIFICATION_TYPE": "U", "NORAD_CAT_ID": 33320, "ELEMENT_SET_NO": 999, "REV_AT_EPOCH": 93089, "BSTAR": 0.00014609116, "MEAN_MOTION_DOT": 1.151e-05, "MEAN_MOTION_DDOT": 0}, "tle": {"line1": "1 33320U 08041A   25347.64049355  .00001151  00000+0  14609-3 0  9991", "line2": "2 33320  97.6542 335.9013 0020055  31.4618 328.7792 14.83396260930894"}}, "geometry": {"type": "Point", "coordinates": [160.12476523966333, 23.92080547956419]}}, {"type": "Feature", "properties": {"norad_id": 33321, "name": "HUANJING 1B (HJ-1B)", "group": "dmc", "lat": 12.480480042325055, "lon": -21.305102391719608, "alt_km": 607.225863938852, "timestamp": "2025-12-14T11:29:49.723276+00:00", "meta": {"OBJECT_NAME": "HUANJING 1B (HJ-1B)", "OBJECT_ID": "2008-041B", "EPOCH": "2025-12-13T16:00:23.082912", "MEAN_MOTION": 14.8282418, "ECCENTRICITY": 0.00381694, "INCLINATION": 97.6402, "RA_OF_ASC_NODE": 339.6213, "ARG_OF_PERICENTER": 72.7957, "MEAN_ANOMALY": 287.743, "EPHEMERIS_TYPE": 0, "CLASSIFICATION_TYPE": "U", "NORAD_CAT_ID": 33321, "ELEMENT_SET_NO": 999, "REV_AT_EPOCH": 93091, "BSTAR": 0.0002217956, "MEAN_MOTION_DOT": 1.766e-05, "MEAN_MOTION_DDOT": 0}, "tle": {"line1": "1 33321U 08041B   25347.66693383  .00001766  00000+0  22180-3 0  9995", "line2": "2 33321  97.6402 339.6213 0038169  72.7957 287.7430 14.82824180930914"}}, "geometry": {"type": "Point", "coordinates": [-21.305102391719608, 12.480480042325055]}}, {"type": "Feature", "properties": {"norad_id": 33446, "name": "YAOGAN-4", "group": "dmc", "lat": -74.15170281056726, "lon": -52.081223496429665, "alt_km": 620.2873818502821, "timestamp": "2025-12-14T11:29:49.723288+00:00", "meta": {"OBJECT_NAME": "YAOGAN-4", "OBJECT_ID": "2008-061A", "EPOCH": "2025-12-13T16:24:13.135968", "MEAN_MOTION": 14.82686837, "ECCENTRICITY": 0.00135092, "INCLINATION": 97.918, "RA_OF_ASC_NODE": 277.7736, "ARG_OF_PERICENTER": 320.0535, "MEAN_ANOMALY": 39.9683, "EPHEMERIS_TYPE": 0, "CLASSIFICATION_TYPE": "U", "NORAD_CAT_ID": 33446, "ELEMENT_SET_NO": 999, "REV_AT_EPOCH": 91817, "BSTAR": 0.00027788174, "MEAN_MOTION_DOT": 2.191e-05, "MEAN_MOTION_DDOT": 0}, "tle": {"line1": "1 33446U 08061A   25347.68348537  .00002191  00000+0  27788-3 0  9997", "line2": "2 33446  97.9180 277.7736 0013509 320.0535  39.9683 14.82686837918178"}}, "geometry": {"type": "Point", "coordinates": [-52.081223496429665, -74.15170281056726]}}, {"type": "Feature", "properties": {"norad_id": 35681, "name": "DEIMOS-1", "group": "dmc", "lat": 5.142586597124825, "lon": 148.3019880249958, "alt_km": 646.9702833464853, "timestamp": "2025-12-14T11:29:49.723300+00:00", "meta": {"OBJECT_NAME": "DEIMOS-1", "OBJECT_ID": "2009-041A", "EPOCH": "2025-12-13T15:56:08.805120", "MEAN_MOTION": 14.74955029, "ECCENTRICITY": 0.00027307, "INCLINATION": 97.7149, "RA_OF_ASC_NODE": 148.2242, "ARG_OF_PERICENTER": 78.398, "MEAN_ANOMALY": 281.7536, "EPHEMERIS_TYPE": 0, "CLASSIFICATION_TYPE": "U", "NORAD_CAT_ID": 35681, "ELEMENT_SET_NO": 999, "REV_AT_EPOCH": 87953, "BSTAR": 0.00017069353, "MEAN_MOTION_DOT": 1.1e-05, "MEAN_MOTION_DDOT": 0}, "tle": {"line1": "1 35681U 09041A   25347.66399080  .00001100  00000+0  17069-3 0  9996", "line2": "2 35681  97.7149 148.2242 0002730  78.3980 281.7536 14.74955029879532"}}, "geometry": {"type": "Point", "coordinates": [148.3019880249958, 5.142586597124825]}}, {"type": "Feature", "properties": {"norad_id": 35683, "name": "UK-DMC 2", "group": "dmc", "lat": 24.25328708515828, "lon": 119.76570401214241, "alt_km": 642.2041630621443, "timestamp": "2025-12-14T11:29:49.723311+00:00", "meta": {"OBJECT_NAME": "UK-DMC 2", "OBJECT_ID": "2009-041C", "EPOCH": "2025-12-13T15:51:26.964000", "MEAN_MOTION": 14.75625755, "ECCENTRICITY": 0.00014534, "INCLINATION": 97.8557, "RA_OF_ASC_NODE": 122.5371, "ARG_OF_PERICENTER": 96.1291, "MEAN_ANOMALY": 264.0085, "EPHEMERIS_TYPE": 0, "CLASSIFICATION_TYPE": "U", "NORAD_CAT_ID": 35683, "ELEMENT_SET_NO": 999, "REV_AT_EPOCH": 87920, "BSTAR": 0.00026215857, "MEAN_MOTION_DOT": 1.74e-05, "MEAN_MOTION_DDOT": 0}, "tle": {"line1": "1 35683U 09041C   25347.66072875  .00001740  00000+0  26216-3 0  9992", "line2": "2 35683  97.8557 122.5371 0001453  96.1291 264.0085 14.75625755879208"}}, "geometry": {"type": "Point", "coordinates": [119.76570401214241, 24.25328708515828]}}, {"type": "Feature", "properties": {"norad_id": 40715, "name": "DMC3-FM1", "group": "dmc", "lat": 44.47050006963313, "lon": 43.208947561420175, "alt_km": 611.6788358363565, "timestamp": "2025-12-14T11:29:49.723322+00:00", "meta": {"OBJECT_NAME": "DMC3-FM1", "OBJECT_ID": "2015-032A", "EPOCH": "2025-12-13T15:29:29.192064", "MEAN_MOTION": 14.85441645, "ECCENTRICITY": 0.00046243, "INCLINATION": 97.669, "RA_OF_ASC_NODE": 214.8048, "ARG_OF_PERICENTER": 317.2188, "MEAN_ANOMALY": 42.8667, "EPHEMERIS_TYPE": 0, "CLASSIFICATION_TYPE": "U", "NORAD_CAT_ID": 40715, "ELEMENT_SET_NO": 999, "REV_AT_EPOCH": 56236, "BSTAR": 0.00012535765, "MEAN_MOTION_DOT": 1.029e-05, "MEAN_MOTION_DDOT": 0}, "tle": {"line1": "1 40715U 15032A   25347.64547676  .00001029  00000+0  12536-3 0  9995", "line2": "2 40715  97.6690 214.8048 0004624 317.2188  42.8667 14.85441645562366"}}, "geometry": {"type": "Point", "coordinates": [43.208947561420175, 44.47050006963313]}}, {"type": "Feature", "properties": {"norad_id": 40716, "name": "DMC3-FM2", "group": "dmc", "lat": 14.53766242087853, "lon": -144.95093206653246, "alt_km": 611.0463002711467, "timestamp": "2025-12-14T11:29:49.723333+00:00", "meta": {"OBJECT_NAME": "DMC3-FM2", "OBJECT_ID": "2015-032B", "EPOCH": "2025-12-13T16:01:52.698720", "MEAN_MOTION": 14.85445986, "ECCENTRICITY": 0.00051744, "INCLINATION": 97.6748, "RA_OF_ASC_NODE": 216.2712, "ARG_OF_PERICENTER": 322.7335, "MEAN_ANOMALY": 37.3521, "EPHEMERIS_TYPE": 0, "CLASSIFICATION_TYPE": "U", "NORAD_CAT_ID": 40716, "ELEMENT_SET_NO": 999, "REV_AT_EPOCH": 56236, "BSTAR": 0.00020595066, "MEAN_MOTION_DOT": 1.724e-05, "MEAN_MOTION_DDOT": 0}, "tle": {"line1": "1 40716U 15032B   25347.66797105  .00001724  00000+0  20595-3 0  9998", "line2": "2 40716  97.6748 216.2712 0005174 322.7335  37.3521 14.85445986562361"}}, "geometry": {"type": "Point", "coordinates": [-144.95093206653246, 14.53766242087853]}}, {"type": "Feature", "properties": {"norad_id": 40717, "name": "DMC3-FM3", "group": "dmc", "lat": -76.68786721652444, "lon": 3.9133397191220864, "alt_km": 618.1504133714316, "timestamp": "2025-12-14T11:29:49.723343+00:00", "meta": {"OBJECT_NAME": "DMC3-FM3", "OBJECT_ID": "2015-032C", "EPOCH": "2025-12-13T14:56:01.433184", "MEAN_MOTION": 14.85435166, "ECCENTRICITY": 0.00045623, "INCLINATION": 97.6805, "RA_OF_ASC_NODE": 217.8607, "ARG_OF_PERICENTER": 325.8397, "MEAN_ANOMALY": 34.2525, "EPHEMERIS_TYPE": 0, "CLASSIFICATION_TYPE": "U", "NORAD_CAT_ID": 40717, "ELEMENT_SET_NO": 999, "REV_AT_EPOCH": 56236, "BSTAR": 0.00018153923, "MEAN_MOTION_DOT": 1.513e-05, "MEAN_MOTION_DDOT": 0}, "tle": {"line1": "1 40717U 15032C   25347.62223881  .00001513  00000+0  18154-3 0  9994", "line2": "2 40717  97.6805 217.8607 0004562 325.8397  34.2525 14.85435166562367"}}, "geometry": {"type": "Point", "coordinates": [3.9133397191220864, -76.68786721652444]}}]}